{
  "links": {
    "next": "https://api.nasa.gov/neo/rest/v1/feed?start_date=2017-07-18&end_date=2017-07-18&detailed=true&api_key=TxpAbzBJkgazWhEkL2WIyZW2rsnEFx2Ns7Wmrey0",
    "prev": "https://api.nasa.gov/neo/rest/v1/feed?start_date=2017-07-16&end_date=2017-07-16&detailed=true&api_key=TxpAbzBJkgazWhEkL2WIyZW2rsnEFx2Ns7Wmrey0",
    "self": "https://api.nasa.gov/neo/rest/v1/feed?start_date=2017-07-17&end_date=2017-07-17&detailed=true&api_key=TxpAbzBJkgazWhEkL2WIyZW2rsnEFx2Ns7Wmrey0"
  },
  "element_count": 9,
  "near_earth_objects": {
    "2017-07-17": [
      {
        "links": {
          "self": "https://api.nasa.gov/neo/rest/v1/neo/3719861?api_key=TxpAbzBJkgazWhEkL2WIyZW2rsnEFx2Ns7Wmrey0"
        },
        "neo_reference_id": "3719861",
        "name": "(2015 KJ57)",
        "nasa_jpl_url": "http://ssd.jpl.nasa.gov/sbdb.cgi?sstr=3719861",
        "absolute_magnitude_h": 21.5,
        "estimated_diameter": {
          "kilometers": {
            "estimated_diameter_min": 0.1332155667,
            "estimated_diameter_max": 0.2978790628
          },
          "meters": {
            "estimated_diameter_min": 133.2155666981,
            "estimated_diameter_max": 297.8790627982
          },
          "miles": {
            "estimated_diameter_min": 0.0827762899,
            "estimated_diameter_max": 0.1850934111
          },
          "feet": {
            "estimated_diameter_min": 437.0589598459,
            "estimated_diameter_max": 977.2935443908
          }
        },
        "is_potentially_hazardous_asteroid": true,
        "close_approach_data": [
          {
            "close_approach_date": "2017-07-17",
            "epoch_date_close_approach": 1500274800000,
            "relative_velocity": {
              "kilometers_per_second": "11.2533944659",
              "kilometers_per_hour": "40512.220077325",
              "miles_per_hour": "25172.7180808245"
            },
            "miss_distance": {
              "astronomical": "0.104351969",
              "lunar": "40.5929145813",
              "kilometers": "15610832",
              "miles": "9700121"
            },
            "orbiting_body": "Earth"
          }
        ],
        "orbital_data": {
          "orbit_id": "40",
          "orbit_determination_date": "2017-07-05 06:17:22",
          "orbit_uncertainty": "0",
          "minimum_orbit_intersection": ".0122301",
          "jupiter_tisserand_invariant": "4.337",
          "epoch_osculation": "2458000.5",
          "eccentricity": ".4041832825089577",
          "semi_major_axis": "1.559239327261995",
          "inclination": "2.628132973519366",
          "ascending_node_longitude": "14.42136607732002",
          "orbital_period": "711.1604514509346",
          "perihelion_distance": ".929020857752183",
          "perihelion_argument": "336.4446813658856",
          "aphelion_distance": "2.189457796771808",
          "perihelion_time": "2457994.217452588329",
          "mean_anomaly": "3.180318961195116",
          "mean_motion": ".5062148763552801",
          "equinox": "J2000"
        }
      },
      {
        "links": {
          "self": "https://api.nasa.gov/neo/rest/v1/neo/2481394?api_key=TxpAbzBJkgazWhEkL2WIyZW2rsnEFx2Ns7Wmrey0"
        },
        "neo_reference_id": "2481394",
        "name": "481394 (2006 SF6)",
        "nasa_jpl_url": "http://ssd.jpl.nasa.gov/sbdb.cgi?sstr=2481394",
        "absolute_magnitude_h": 20,
        "estimated_diameter": {
          "kilometers": {
            "estimated_diameter_min": 0.2658,
            "estimated_diameter_max": 0.5943468684
          },
          "meters": {
            "estimated_diameter_min": 265.8,
            "estimated_diameter_max": 594.3468684194
          },
          "miles": {
            "estimated_diameter_min": 0.1651604118,
            "estimated_diameter_max": 0.369309908
          },
          "feet": {
            "estimated_diameter_min": 872.047272,
            "estimated_diameter_max": 1949.9569797852
          }
        },
        "is_potentially_hazardous_asteroid": true,
        "close_approach_data": [
          {
            "close_approach_date": "2017-07-17",
            "epoch_date_close_approach": 1500274800000,
            "relative_velocity": {
              "kilometers_per_second": "12.1983865164",
              "kilometers_per_hour": "43914.1914590015",
              "miles_per_hour": "27286.5707985112"
            },
            "miss_distance": {
              "astronomical": "0.1616281258",
              "lunar": "62.8733406067",
              "kilometers": "24179224",
              "miles": "15024273"
            },
            "orbiting_body": "Earth"
          }
        ],
        "orbital_data": {
          "orbit_id": "49",
          "orbit_determination_date": "2017-04-06 09:18:49",
          "orbit_uncertainty": "1",
          "minimum_orbit_intersection": ".0194015",
          "jupiter_tisserand_invariant": "6.297",
          "epoch_osculation": "2458000.5",
          "eccentricity": ".280491064517499",
          "semi_major_axis": ".9493459350392746",
          "inclination": "5.865276308845362",
          "ascending_node_longitude": "228.0845607669863",
          "orbital_period": "337.8587489539247",
          "perihelion_distance": ".6830628831247481",
          "perihelion_argument": "305.6859186533063",
          "aphelion_distance": "1.215628986953801",
          "perihelion_time": "2457875.152998781467",
          "mean_anomaly": "133.5614974553341",
          "mean_motion": "1.065534046741808",
          "equinox": "J2000"
        }
      },
      {
        "links": {
          "self": "https://api.nasa.gov/neo/rest/v1/neo/3776549?api_key=TxpAbzBJkgazWhEkL2WIyZW2rsnEFx2Ns7Wmrey0"
        },
        "neo_reference_id": "3776549",
        "name": "(2017 NS5)",
        "nasa_jpl_url": "http://ssd.jpl.nasa.gov/sbdb.cgi?sstr=3776549",
        "absolute_magnitude_h": 20.525,
        "estimated_diameter": {
          "kilometers": {
            "estimated_diameter_min": 0.2087156317,
            "estimated_diameter_max": 0.4667023404
          },
          "meters": {
            "estimated_diameter_min": 208.7156316794,
            "estimated_diameter_max": 466.7023404019
          },
          "miles": {
            "estimated_diameter_min": 0.1296898408,
            "estimated_diameter_max": 0.2899953
          },
          "feet": {
            "estimated_diameter_min": 684.7625930389,
            "estimated_diameter_max": 1531.175706484
          }
        },
        "is_potentially_hazardous_asteroid": true,
        "close_approach_data": [
          {
            "close_approach_date": "2017-07-17",
            "epoch_date_close_approach": 1500274800000,
            "relative_velocity": {
              "kilometers_per_second": "22.6776069052",
              "kilometers_per_hour": "81639.3848586052",
              "miles_per_hour": "50727.5388861705"
            },
            "miss_distance": {
              "astronomical": "0.0343866149",
              "lunar": "13.3763933182",
              "kilometers": "5144164.5",
              "miles": "3196435.75"
            },
            "orbiting_body": "Earth"
          }
        ],
        "orbital_data": {
          "orbit_id": "2",
          "orbit_determination_date": "2017-07-15 06:18:59",
          "orbit_uncertainty": "8",
          "minimum_orbit_intersection": ".0246649",
          "jupiter_tisserand_invariant": "5.925",
          "epoch_osculation": "2457945.5",
          "eccentricity": ".2571292193351668",
          "semi_major_axis": ".9775848133414282",
          "inclination": "44.01906120847832",
          "ascending_node_longitude": "294.826279156948",
          "orbital_period": "353.0450252422726",
          "perihelion_distance": ".726219193453032",
          "perihelion_argument": "118.9288778017847",
          "aphelion_distance": "1.228950433229824",
          "perihelion_time": "2458039.128791027378",
          "mean_anomaly": "264.5267250353534",
          "mean_motion": "1.019699965331489",
          "equinox": "J2000"
        }
      }
    ]
  }
}